NORAD_CAT_ID,OBJECT_NAME,OBJECT_TYPE,EPOCH,MEAN_MOTION,ECCENTRICITY,INCLINATION,RA_OF_ASC_NODE,ARG_OF_PERICENTER,MEAN_ANOMALY,BSTAR,MEAN_MOTION_DOT,MEAN_MOTION_DDOT,TLE_LINE0,TLE_LINE1,TLE_LINE2,SEMIMAJOR_AXIS,PERIOD,APOGEE,PERIGEE,DECAYED
53036.0,STARLINK-4155,PAYLOAD,2022-11-04 16:14:47,15.08836617,0.0001446,53.2175,155.4608,60.0145,300.0991,0.00020664,3.002e-05,0.0,0 STARLINK-4155,1 53036U 22076BC  22308.67693764  .00003002  00000-0  20664-3 0  9993,2 53036  53.2175 155.4608 0001446  60.0145 300.0991 15.08836617 19256,6917.891,95.438,540.756,538.755,0.0
53036.0,STARLINK-4155,PAYLOAD,2022-11-05 06:33:15,15.08840164,0.0001440999999999,53.218,152.784,63.3518,296.7622,3.6438e-05,2.92e-06,0.0,0 STARLINK-4155,1 53036U 22076BC  22309.27310125  .00000292  00000-0  36438-4 0  9992,2 53036  53.2180 152.7840 0001441  63.3518 296.7622 15.08840164 18887,6917.88,95.438,540.742,538.748,0.0
53036.0,STARLINK-4155,PAYLOAD,2022-11-05 19:16:21,15.08834958,0.0001589,53.2176,150.4051,65.6527,294.4631,-6.3355e-05,-1.296e-05,0.0,0 STARLINK-4155,1 53036U 22076BC  22309.80302932 -.00001296  00000-0 -63355-4 0  9993,2 53036  53.2176 150.4051 0001589  65.6527 294.4631 15.08834958 19429,6917.896,95.438,540.86,538.6619999999998,0.0
53036.0,STARLINK-4155,PAYLOAD,2022-11-06 01:37:54,15.08836461,0.0001648,53.2176,149.2159,63.293,296.823,-3.9055e-05,-9.09e-06,0.0,0 STARLINK-4155,1 53036U 22076BC  22310.06798839 -.00000909  00000-0 -39055-4 0  9998,2 53036  53.2176 149.2159 0001648  63.2930 296.8230 15.08836461 19008,6917.891,95.438,540.896,538.616,0.0
53036.0,STARLINK-4155,PAYLOAD,2022-11-06 20:42:31,15.08849658,0.0001547,53.2177,145.6474,62.7418,297.3732,-8.1107e-05,-1.579e-05,0.0,0 STARLINK-4155,1 53036U 22076BC  22310.86286185 -.00001579  00000-0 -81107-4 0  9991,2 53036  53.2177 145.6474 0001547  62.7418 297.3732 15.08849658 19580,6917.851,95.437,540.786,538.646,0.0
53036.0,STARLINK-4155,PAYLOAD,2022-11-07 15:47:09,15.08836556,0.0001584,53.2177,142.079,62.0273,298.0879,0.00010122,1.323e-05,0.0,0 STARLINK-4155,1 53036U 22076BC  22311.65774598  .00001323  00000-0  10122-3 0  9992,2 53036  53.2177 142.0790 0001584  62.0273 298.0879 15.08836556 19702,6917.891,95.438,540.852,538.66,0.0
53036.0,STARLINK-4155,PAYLOAD,2022-11-08 06:05:37,15.08837224,0.0001587,53.2178,139.4028,62.5145,297.6009,7.3166e-05,8.77e-06,0.0,0 STARLINK-4155,1 53036U 22076BC  22312.25390692  .00000877  00000-0  73166-4 0  9999,2 53036  53.2178 139.4028 0001587  62.5145 297.6009 15.08837224 19335,6917.889,95.438,540.852,538.656,0.0
53036.0,STARLINK-4155,PAYLOAD,2022-11-08 18:48:41,15.088502300000002,0.000154,53.2178,137.0236,62.2507,297.8641,8.5355e-05,1.071e-05,0.0,0 STARLINK-4155,1 53036U 22076BC  22312.78381734  .00001071  00000-0  85355-4 0  9994,2 53036  53.2178 137.0236 0001540  62.2507 297.8641 15.08850230 19873,6917.849,95.437,540.779,538.649,0.0
53036.0,STARLINK-4155,PAYLOAD,2022-11-09 12:17:56,15.08848365,0.0001704,53.2179,133.7532,61.2393,298.877,3.1454e-05,2.13e-06,0.0,0 STARLINK-4155,1 53036U 22076BC  22313.51245596  .00000213  00000-0  31454-4 0  9999,2 53036  53.2179 133.7532 0001704  61.2393 298.8770 15.08848365 19522,6917.855,95.437,540.899,538.5409999999998,0.0
53036.0,STARLINK-4155,PAYLOAD,2022-11-09 18:39:29,15.08831317,0.000153,53.2185,132.5638,59.0123,301.1019,-6.020600000000001e-05,-1.246e-05,0.0,0 STARLINK-4155,1 53036U 22076BC  22313.77742918 -.00001246  00000-0 -60206-4 0  9993,2 53036  53.2185 132.5638 0001530  59.0123 301.1019 15.08831317 20026,6917.906999999997,95.438,540.83,538.7130000000002,0.0
53036.0,STARLINK-4155,PAYLOAD,2022-11-10 12:08:44,15.08835695,0.0001655,53.2174,129.2922,62.4807,297.6353,-7.6376e-05,-1.503e-05,0.0,0 STARLINK-4155,1 53036U 22076BC  22314.50606961 -.00001503  00000-0 -76376-4 0  9993,2 53036  53.2174 129.2922 0001655  62.4807 297.6353 15.08835695 19670,6917.894,95.438,540.903,538.614,0.0
53036.0,STARLINK-4155,PAYLOAD,2022-11-10 18:30:16,15.08875937,0.0001559,53.2173,128.1019,72.0055,288.1107,-0.00052733,-8.679e-05,0.0,0 STARLINK-4155,1 53036U 22076BC  22314.77102200 -.00008679  00000-0 -52733-3 0  9990,2 53036  53.2173 128.1019 0001559  72.0055 288.1107 15.08875937 20171,6917.771,95.435,540.714,538.557,0.0
53036.0,STARLINK-4155,PAYLOAD,2022-11-10 23:16:26,15.08842206,0.0001554,53.2178,127.2112,59.3813,300.7333,-8.117899999999999e-05,-1.58e-05,0.0,0 STARLINK-4155,1 53036U 22076BC  22314.96974628 -.00001580  00000-0 -81179-4 0  9993,2 53036  53.2178 127.2112 0001554  59.3813 300.7333 15.08842206 20204,6917.874,95.437,540.814,538.664,0.0
53036.0,STARLINK-4155,PAYLOAD,2022-11-11 11:59:29,15.08876079,0.0001616,53.2179,124.8322,54.044,306.0702,-0.0005021,-8.278e-05,0.0,0 STARLINK-4155,1 53036U 22076BC  22315.49965078 -.00008278  00000-0 -50210-3 0  9993,2 53036  53.2179 124.8322 0001616  54.0440 306.0702 15.08876079 20280,6917.77,95.435,540.753,538.5169999999998,0.0
53036.0,STARLINK-4155,PAYLOAD,2022-11-11 18:21:03,15.08834958,0.0001667,53.2179,123.6429,62.0557,298.0604,0.0001716,2.444e-05,0.0,0 STARLINK-4155,1 53036U 22076BC  22315.76462545  .00002444  00000-0  17160-3 0  9998,2 53036  53.2179 123.6429 0001667  62.0557 298.0604 15.08834958 20325,6917.896,95.438,540.914,538.6080000000002,0.0
53036.0,STARLINK-4155,PAYLOAD,2022-11-12 13:25:41,15.08839258,0.0001684,53.2179,120.0749,63.3782,296.7382,0.00011798,1.59e-05,0.0,0 STARLINK-4155,1 53036U 22076BC  22316.55950664  .00001590  00000-0  11798-3 0  9992,2 53036  53.2179 120.0749 0001684  63.3782 296.7382 15.08839258 19980,6917.8830000000025,95.438,540.913,538.5830000000002,0.0
53036.0,STARLINK-4155,PAYLOAD,2022-11-12 19:47:14,15.08836147,0.0001663,53.2182,118.8855,61.9652,298.1508,7.5545e-05,9.14e-06,0.0,0 STARLINK-4155,1 53036U 22076BC  22316.82446961  .00000914  00000-0  75545-4 0  9992,2 53036  53.2182 118.8855 0001663  61.9652 298.1508 15.08836147 20021,6917.892,95.438,540.908,538.607,0.0
53036.0,STARLINK-4155,PAYLOAD,2022-11-13 11:41:05,15.0884321,0.0001605,53.2184,115.9115,63.7896,296.3261,9.692e-05,1.255e-05,0.0,0 STARLINK-4155,1 53036U 22076BC  22317.48686408  .00001255  00000-0  96920-4 0  9996,2 53036  53.2184 115.9115 0001605  63.7896 296.3261 15.08843210 20582,6917.871,95.437,540.846,538.625,0.0
53036.0,STARLINK-4155,PAYLOAD,2022-11-13 16:27:14,15.08837771,0.0001608,53.2187,115.0194,66.0504,294.0657,-6.5969e-06,-3.93e-06,0.0,0 STARLINK-4155,1 53036U 22076BC  22317.68558962 -.00000393  00000-0 -65969-5 0  9995,2 53036  53.2187 115.0194 0001608  66.0504 294.0657 15.08837771 20611,6917.887,95.438,540.865,538.64,0.0
53036.0,STARLINK-4155,PAYLOAD,2022-11-14 09:56:32,15.08748173,0.0001541,53.2183,111.7481,84.1084,276.0084,0.0012884,0.00020225,0.0,0 STARLINK-4155,1 53036U 22076BC  22318.41425963  .00020225  00000-0  12884-2 0  9990,2 53036  53.2183 111.7481 0001541  84.1084 276.0084 15.08748173 20722,6918.161,95.443,541.092,538.96,0.0
53036.0,STARLINK-4155,PAYLOAD,2022-11-14 11:31:52,15.08848399,0.0001646,53.2185,111.4505,57.2074,302.9077,-0.00013535,-2.442e-05,0.0,0 STARLINK-4155,1 53036U 22076BC  22318.48046548 -.00002442  00000-0 -13535-3 0  9993,2 53036  53.2185 111.4505 0001646  57.2074 302.9077 15.08848399 20276,6917.855,95.437,540.8580000000002,538.581,0.0
53036.0,STARLINK-4155,PAYLOAD,2022-11-14 17:53:24,15.08841434,0.0001588,53.2183,110.2611,57.3151,302.7995,6.735399999999999e-05,7.84e-06,0.0,0 STARLINK-4155,1 53036U 22076BC  22318.74542484  .00000784  00000-0  67354-4 0  9996,2 53036  53.2183 110.2611 0001588  57.3151 302.7995 15.08841434 20316,6917.876,95.437,540.84,538.6419999999998,0.0
53036.0,STARLINK-4155,PAYLOAD,2022-11-14 22:39:33,15.08842689,0.00016,53.2182,109.3691,62.2183,297.8971,9.0899e-05,1.159e-05,0.0,0 STARLINK-4155,1 53036U 22076BC  22318.94414288  .00001159  00000-0  90899-4 0  9995,2 53036  53.2182 109.3691 0001600  62.2183 297.8971 15.08842689 20802,6917.871999999999,95.437,540.844,538.63,0.0
53036.0,STARLINK-4155,PAYLOAD,2022-11-15 09:47:16,15.08837216,0.0001797,53.2177,107.2883,61.6578,298.4595,0.00010017,1.306e-05,0.0,0 STARLINK-4155,1 53036U 22076BC  22319.40782509  .00001306  00000-0  10017-3 0  9998,2 53036  53.2177 107.2883 0001797  61.6578 298.4595 15.08837216 20410,6917.889,95.438,540.997,538.511,0.0
53036.0,STARLINK-4155,PAYLOAD,2022-11-15 14:33:25,15.08833404,0.0001743,53.2178,106.3959,62.0459,298.0709,6.0827e-05,6.8e-06,0.0,0 STARLINK-4155,1 53036U 22076BC  22319.60654950  .00000680  00000-0  60827-4 0  9997,2 53036  53.2178 106.3959 0001743  62.0459 298.0709 15.08833404 20901,6917.901,95.438,540.971,538.56,0.0
53036.0,STARLINK-4155,PAYLOAD,2022-11-15 17:44:12,15.08833962,0.0001485,53.2188,105.802,57.299,302.8145,6.612e-05,7.64e-06,0.0,0 STARLINK-4155,1 53036U 22076BC  22319.73902948  .00000764  00000-0  66120-4 0  9999,2 53036  53.2188 105.8020 0001485  57.2990 302.8145 15.08833962 20462,6917.899,95.438,540.7909999999998,538.737,0.0
53036.0,STARLINK-4155,PAYLOAD,2022-11-16 09:38:04,15.08825449,0.000154,53.2191,102.8284,58.0214,302.0928,-5.6012e-05,-1.179e-05,0.0,0 STARLINK-4155,1 53036U 22076BC  22320.40144381 -.00001179  00000-0 -56012-4 0  9996,2 53036  53.2191 102.8284 0001540  58.0214 302.0928 15.08825449 21020,6917.925,95.438,540.855,538.725,0.0
53036.0,STARLINK-4155,PAYLOAD,2022-11-16 14:24:14,15.08829186,0.0001618,53.2194,101.9372,57.1004,303.0144,-2.8183e-05,-7.36e-06,0.0,0 STARLINK-4155,1 53036U 22076BC  22320.60016208 -.00000736  00000-0 -28183-4 0  9990,2 53036  53.2194 101.9372 0001618  57.1004 303.0144 15.08829186 20598,6917.913000000001,95.438,540.898,538.659,0.0
53036.0,STARLINK-4155,PAYLOAD,2022-11-16 15:59:37,15.08830745,0.0001568,53.2189,101.6391,56.5969,303.5173,-7.2014e-06,-4.03e-06,0.0,0 STARLINK-4155,1 53036U 22076BC  22320.66640101 -.00000403  00000-0 -72014-5 0  9995,2 53036  53.2189 101.6391 0001568  56.5969 303.5173 15.08830745 20609,6917.909000000002,95.438,540.8580000000002,538.689,0.0
